{"type": "FeatureCollection", "features": [{"type": "Feature", "properties": {"norad_id": 24946, "name": "IRIDIUM 33", "group": "iridium-33-debris", "lat": -68.37679461844448, "lon": -106.24037281771521, "alt_km": 780.9896444697715, "timestamp": "2025-12-21T09:37:23.039418+00:00", "meta": {"OBJECT_NAME": "IRIDIUM 33", "OBJECT_ID": "1997-051C", "EPOCH": "2025-12-21T03:26:52.541088", "MEAN_MOTION": 14.35042678, "ECCENTRICITY": 0.0008038, "INCLINATION": 86.3863, "RA_OF_ASC_NODE": 64.6941, "ARG_OF_PERICENTER": 172.3599, "MEAN_ANOMALY": 187.7721, "EPHEMERIS_TYPE": 0, "CLASSIFICATION_TYPE": "U", "NORAD_CAT_ID": 24946, "ELEMENT_SET_NO": 999, "REV_AT_EPOCH": 47955, "BSTAR": 8.2654e-05, "MEAN_MOTION_DOT": 2.55e-06, "MEAN_MOTION_DDOT": 0}, "tle": {"line1": "1 24946U 97051C   25355.14366367  .00000255  00000+0  82654-4 0  9993", "line2": "2 24946  86.3863  64.6941 0008038 172.3599 187.7721 14.35042678479559"}}, "geometry": {"type": "Point", "coordinates": [-106.24037281771521, -68.37679461844448]}}, {"type": "Feature", "properties": {"norad_id": 33773, "name": "IRIDIUM 33 DEB", "group": "iridium-33-debris", "lat": 77.85140593413684, "lon": -140.0851118779256, "alt_km": 731.6901305241208, "timestamp": "2025-12-21T09:37:23.039453+00:00", "meta": {"OBJECT_NAME": "IRIDIUM 33 DEB", "OBJECT_ID": "1997-051L", "EPOCH": "2025-12-20T21:30:24.455232", "MEAN_MOTION": 14.43272653, "ECCENTRICITY": 0.001312, "INCLINATION": 86.4001, "RA_OF_ASC_NODE": 57.1331, "ARG_OF_PERICENTER": 122.7867, "MEAN_ANOMALY": 237.46, "EPHEMERIS_TYPE": 0, "CLASSIFICATION_TYPE": "U", "NORAD_CAT_ID": 33773, "ELEMENT_SET_NO": 999, "REV_AT_EPOCH": 88465, "BSTAR": 0.00020658, "MEAN_MOTION_DOT": 7.16e-06, "MEAN_MOTION_DDOT": 0}, "tle": {"line1": "1 33773U 97051L   25354.89611638  .00000716  00000+0  20658-3 0  9993", "line2": "2 33773  86.4001  57.1331 0013120 122.7867 237.4600 14.43272653884654"}}, "geometry": {"type": "Point", "coordinates": [-140.0851118779256, 77.85140593413684]}}, {"type": "Feature", "properties": {"norad_id": 33775, "name": "IRIDIUM 33 DEB", "group": "iridium-33-debris", "lat": 50.317138249420054, "lon": -138.541271499984, "alt_km": 738.3245330863374, "timestamp": "2025-12-21T09:37:23.039470+00:00", "meta": {"OBJECT_NAME": "IRIDIUM 33 DEB", "OBJECT_ID": "1997-051N", "EPOCH": "2025-12-21T04:16:38.260704", "MEAN_MOTION": 14.41484651, "ECCENTRICITY": 0.0015071, "INCLINATION": 86.3627, "RA_OF_ASC_NODE": 45.9507, "ARG_OF_PERICENTER": 129.3749, "MEAN_ANOMALY": 284.9532, "EPHEMERIS_TYPE": 0, "CLASSIFICATION_TYPE": "U", "NORAD_CAT_ID": 33775, "ELEMENT_SET_NO": 999, "REV_AT_EPOCH": 88262, "BSTAR": 0.00021779, "MEAN_MOTION_DOT": 7.27e-06, "MEAN_MOTION_DDOT": 0}, "tle": {"line1": "1 33775U 97051N   25355.17822061  .00000727  00000+0  21779-3 0  9998", "line2": "2 33775  86.3627  45.9507 0015071 129.3749 284.9532 14.41484651882625"}}, "geometry": {"type": "Point", "coordinates": [-138.541271499984, 50.317138249420054]}}, {"type": "Feature", "properties": {"norad_id": 33776, "name": "IRIDIUM 33 DEB", "group": "iridium-33-debris", "lat": -78.07846909645173, "lon": -85.52934162576051, "alt_km": 772.8449425506269, "timestamp": "2025-12-21T09:37:23.039483+00:00", "meta": {"OBJECT_NAME": "IRIDIUM 33 DEB", "OBJECT_ID": "1997-051P", "EPOCH": "2025-12-21T03:42:50.763744", "MEAN_MOTION": 14.38248667, "ECCENTRICITY": 0.0015302, "INCLINATION": 86.4034, "RA_OF_ASC_NODE": 77.2421, "ARG_OF_PERICENTER": 163.4321, "MEAN_ANOMALY": 261.019, "EPHEMERIS_TYPE": 0, "CLASSIFICATION_TYPE": "U", "NORAD_CAT_ID": 33776, "ELEMENT_SET_NO": 999, "REV_AT_EPOCH": 88203, "BSTAR": 0.00020127, "MEAN_MOTION_DOT": 6.32e-06, "MEAN_MOTION_DDOT": 0}, "tle": {"line1": "1 33776U 97051P   25355.15475421  .00000632  00000+0  20127-3 0  9992", "line2": "2 33776  86.4034  77.2421 0015302 163.4321 261.0190 14.38248667882036"}}, "geometry": {"type": "Point", "coordinates": [-85.52934162576051, -78.07846909645173]}}, {"type": "Feature", "properties": {"norad_id": 33777, "name": "IRIDIUM 33 DEB", "group": "iridium-33-debris", "lat": -47.901844175368176, "lon": -144.5436673703183, "alt_km": 710.1420624565153, "timestamp": "2025-12-21T09:37:23.039496+00:00", "meta": {"OBJECT_NAME": "IRIDIUM 33 DEB", "OBJECT_ID": "1997-051Q", "EPOCH": "2025-12-21T03:37:46.424064", "MEAN_MOTION": 14.55666378, "ECCENTRICITY": 0.0005853, "INCLINATION": 86.3774, "RA_OF_ASC_NODE": 31.5442, "ARG_OF_PERICENTER": 212.4979, "MEAN_ANOMALY": 147.5869, "EPHEMERIS_TYPE": 0, "CLASSIFICATION_TYPE": "U", "NORAD_CAT_ID": 33777, "ELEMENT_SET_NO": 999, "REV_AT_EPOCH": 88656, "BSTAR": 0.00051926, "MEAN_MOTION_DOT": 2.288e-05, "MEAN_MOTION_DDOT": 0}, "tle": {"line1": "1 33777U 97051Q   25355.15123176  .00002288  00000+0  51926-3 0  9990", "line2": "2 33777  86.3774  31.5442 0005853 212.4979 147.5869 14.55666378886562"}}, "geometry": {"type": "Point", "coordinates": [-144.5436673703183, -47.901844175368176]}}, {"type": "Feature", "properties": {"norad_id": 33850, "name": "IRIDIUM 33 DEB", "group": "iridium-33-debris", "lat": 48.30933402921588, "lon": -157.66484419762432, "alt_km": 737.851916723147, "timestamp": "2025-12-21T09:37:23.039508+00:00", "meta": {"OBJECT_NAME": "IRIDIUM 33 DEB", "OBJECT_ID": "1997-051T", "EPOCH": "2025-12-20T20:29:38.135040", "MEAN_MOTION": 14.42163451, "ECCENTRICITY": 0.00130082, "INCLINATION": 86.3409, "RA_OF_ASC_NODE": 26.6904, "ARG_OF_PERICENTER": 136.6945, "MEAN_ANOMALY": 36.4511, "EPHEMERIS_TYPE": 0, "CLASSIFICATION_TYPE": "U", "NORAD_CAT_ID": 33850, "ELEMENT_SET_NO": 999, "REV_AT_EPOCH": 88269, "BSTAR": 0.00025829804, "MEAN_MOTION_DOT": 8.7e-06, "MEAN_MOTION_DDOT": 0}, "tle": {"line1": "1 33850U 97051T   25354.85391360  .00000870  00000+0  25830-3 0  9990", "line2": "2 33850  86.3409  26.6904 0013008 136.6945  36.4511 14.42163451882698"}}, "geometry": {"type": "Point", "coordinates": [-157.66484419762432, 48.30933402921588]}}, {"type": "Feature", "properties": {"norad_id": 33853, "name": "IRIDIUM 33 DEB", "group": "iridium-33-debris", "lat": -74.84794771838781, "lon": -179.01213914776272, "alt_km": 798.3615012968767, "timestamp": "2025-12-21T09:37:23.039520+00:00", "meta": {"OBJECT_NAME": "IRIDIUM 33 DEB", "OBJECT_ID": "1997-051W", "EPOCH": "2025-12-20T22:14:35.888928", "MEAN_MOTION": 13.9910315, "ECCENTRICITY": 0.0207332, "INCLINATION": 85.9999, "RA_OF_ASC_NODE": 346.2208, "ARG_OF_PERICENTER": 210.5493, "MEAN_ANOMALY": 176.3282, "EPHEMERIS_TYPE": 0, "CLASSIFICATION_TYPE": "U", "NORAD_CAT_ID": 33853, "ELEMENT_SET_NO": 999, "REV_AT_EPOCH": 85460, "BSTAR": 0.0010168, "MEAN_MOTION_DOT": 1.786e-05, "MEAN_MOTION_DDOT": 0}, "tle": {"line1": "1 33853U 97051W   25354.92680427  .00001786  00000+0  10168-2 0  9990", "line2": "2 33853  85.9999 346.2208 0207332 210.5493 176.3282 13.99103150854603"}}, "geometry": {"type": "Point", "coordinates": [-179.01213914776272, -74.84794771838781]}}, {"type": "Feature", "properties": {"norad_id": 33860, "name": "IRIDIUM 33 DEB", "group": "iridium-33-debris", "lat": 47.84986193902542, "lon": -160.60404568851527, "alt_km": 669.4385191435922, "timestamp": "2025-12-21T09:37:23.039552+00:00", "meta": {"OBJECT_NAME": "IRIDIUM 33 DEB", "OBJECT_ID": "1997-051AD", "EPOCH": "2025-12-21T00:58:06.257280", "MEAN_MOTION": 14.6745799, "ECCENTRICITY": 0.0006432, "INCLINATION": 86.3822, "RA_OF_ASC_NODE": 23.5637, "ARG_OF_PERICENTER": 326.2778, "MEAN_ANOMALY": 61.8404, "EPHEMERIS_TYPE": 0, "CLASSIFICATION_TYPE": "U", "NORAD_CAT_ID": 33860, "ELEMENT_SET_NO": 999, "REV_AT_EPOCH": 88844, "BSTAR": 0.0007065, "MEAN_MOTION_DOT": 4.021e-05, "MEAN_MOTION_DDOT": 0}, "tle": {"line1": "1 33860U 97051AD  25355.04035020  .00004021  00000+0  70650-3 0  9993", "line2": "2 33860  86.3822  23.5637 0006432 326.2778  61.8404 14.67457990888444"}}, "geometry": {"type": "Point", "coordinates": [-160.60404568851527, 47.84986193902542]}}, {"type": "Feature", "properties": {"norad_id": 33862, "name": "IRIDIUM 33 DEB", "group": "iridium-33-debris", "lat": -53.12772238563495, "lon": -141.484947826048, "alt_km": 705.522710456532, "timestamp": "2025-12-21T09:37:23.039565+00:00", "meta": {"OBJECT_NAME": "IRIDIUM 33 DEB", "OBJECT_ID": "1997-051AF", "EPOCH": "2025-12-21T03:56:03.629760", "MEAN_MOTION": 14.69594486, "ECCENTRICITY": 0.0052612, "INCLINATION": 86.4078, "RA_OF_ASC_NODE": 33.8153, "ARG_OF_PERICENTER": 40.9364, "MEAN_ANOMALY": 19.2005, "EPHEMERIS_TYPE": 0, "CLASSIFICATION_TYPE": "U", "NORAD_CAT_ID": 33862, "ELEMENT_SET_NO": 999, "REV_AT_EPOCH": 88947, "BSTAR": 0.00086313, "MEAN_MOTION_DOT": 5.261e-05, "MEAN_MOTION_DDOT": 0}, "tle": {"line1": "1 33862U 97051AF  25355.16393090  .00005261  00000+0  86313-3 0  9992", "line2": "2 33862  86.4078  33.8153 0052612  40.9364  19.2005 14.69594486889471"}}, "geometry": {"type": "Point", "coordinates": [-141.484947826048, -53.12772238563495]}}, {"type": "Feature", "properties": {"norad_id": 33866, "name": "IRIDIUM 33 DEB", "group": "iridium-33-debris", "lat": -0.3209379737954248, "lon": 89.35079808539946, "alt_km": 867.6104517869035, "timestamp": "2025-12-21T09:37:23.039577+00:00", "meta": {"OBJECT_NAME": "IRIDIUM 33 DEB", "OBJECT_ID": "1997-051AK", "EPOCH": "2025-12-20T19:02:31.124256", "MEAN_MOTION": 14.25296873, "ECCENTRICITY": 0.01150044, "INCLINATION": 86.3001, "RA_OF_ASC_NODE": 89.6286, "ARG_OF_PERICENTER": 135.8612, "MEAN_ANOMALY": 349.482, "EPHEMERIS_TYPE": 0, "CLASSIFICATION_TYPE": "U", "NORAD_CAT_ID": 33866, "ELEMENT_SET_NO": 999, "REV_AT_EPOCH": 86925, "BSTAR": 0.0003750045, "MEAN_MOTION_DOT": 9.66e-06, "MEAN_MOTION_DDOT": 0}, "tle": {"line1": "1 33866U 97051AK  25354.79341579  .00000966  00000+0  37500-3 0  9990", "line2": "2 33866  86.3001  89.6286 0115004 135.8612 349.4820 14.25296873869259"}}, "geometry": {"type": "Point", "coordinates": [89.35079808539946, -0.3209379737954248]}}]}